{"type": "FeatureCollection", "features": [ {"type": "Feature", "properties": {"norad_id": 42969, "name": "SENTINEL-5P", "group": "resource", "lat": -15.35256843639821, "lon": -81.16289025852076, "alt_km": 831.8002573252443, "timestamp": "2025-12-03T17:47:50.369662+00:00", "meta": {"OBJECT_NAME": "SENTINEL-5P", "OBJECT_ID": "2017-064A", "EPOCH": "2025-12-03T11:06:13.207104", "MEAN_MOTION": 14.19513611, "ECCENTRICITY": 9.45e-05, "INCLINATION": 98.777, "RA_OF_ASC_NODE": 276.1297, "ARG_OF_PERICENTER": 85.843, "MEAN_ANOMALY": 274.2854, "EPHEMERIS_TYPE": 0, "CLASSIFICATION_TYPE": "U", "NORAD_CAT_ID": 42969, "ELEMENT_SET_NO": 999, "REV_AT_EPOCH": 42179, "BSTAR": 8.3656e-05, "MEAN_MOTION_DOT": 1.32e-06, "MEAN_MOTION_DDOT": 0}, "tle": {"line1": "1 42969U 17064A   25337.46265286  .00000132  00000+0  83656-4 0  9994", "line2": "2 42969  98.7770 276.1297 0000945  85.8430 274.2854 14.19513611421797"}}, "geometry": {"type": "Point", "coordinates": [-81.16289025852076, -15.35256843639821]}}, {"type": "Feature", "properties": {"norad_id": 42987, "name": "SKYSAT-C11", "group": "resource", "lat": -68.62058484305871, "lon": 134.44195441284032, "alt_km": 433.83438994745575, "timestamp": "2025-12-03T17:47:50.369674+00:00", "meta": {"OBJECT_NAME": "SKYSAT-C11", "OBJECT_ID": "2017-068A", "EPOCH": "2025-12-03T08:47:01.689792", "MEAN_MOTION": 15.46841256, "ECCENTRICITY": 9.22e-05, "INCLINATION": 97.4135, "RA_OF_ASC_NODE": 114.6304, "ARG_OF_PERICENTER": 113.1127, "MEAN_ANOMALY": 247.022, "EPHEMERIS_TYPE": 0, "CLASSIFICATION_TYPE": "U", "NORAD_CAT_ID": 42987, "ELEMENT_SET_NO": 999, "REV_AT_EPOCH": 45286, "BSTAR": 0.00056547, "MEAN_MOTION_DOT": 0.00028363, "MEAN_MOTION_DDOT": 0}, "tle": {"line1": "1 42987U 17068A   25337.36599178  .00028363  00000+0  56547-3 0  9991", "line2": "2 42987  97.4135 114.6304 0000922 113.1127 247.0220 15.46841256452863"}}, "geometry": {"type": "Point", "coordinates": [134.44195441284032, -68.62058484305871]}}, {"type": "Feature", "properties": {"norad_id": 42988, "name": "SKYSAT-C10", "group": "resource", "lat": 35.870257209502974, "lon": -66.01892883273915, "alt_km": 464.06836499306974, "timestamp": "2025-12-03T17:47:50.369685+00:00", "meta": {"OBJECT_NAME": "SKYSAT-C10", "OBJECT_ID": "2017-068B", "EPOCH": "2025-12-02T22:21:40.538016", "MEAN_MOTION": 15.31972305, "ECCENTRICITY": 0.00054851, "INCLINATION": 97.4254, "RA_OF_ASC_NODE": 107.758, "ARG_OF_PERICENTER": 121.5944, "MEAN_ANOMALY": 238.5834, "EPHEMERIS_TYPE": 0, "CLASSIFICATION_TYPE": "U", "NORAD_CAT_ID": 42988, "ELEMENT_SET_NO": 999, "REV_AT_EPOCH": 45229, "BSTAR": 0.00048523918, "MEAN_MOTION_DOT": 0.0001492, "MEAN_MOTION_DDOT": 0}, "tle": {"line1": "1 42988U 17068B   25336.93171919  .00014920  00000+0  48524-3 0  9993", "line2": "2 42988  97.4254 107.7580 0005485 121.5944 238.5834 15.31972305452291"}}, "geometry": {"type": "Point", "coordinates": [-66.01892883273915, 35.870257209502974]}}, {"type": "Feature", "properties": {"norad_id": 42989, "name": "SKYSAT-C9", "group": "resource", "lat": -43.168778444305666, "lon": -79.09292197332125, "alt_km": 467.70448884979396, "timestamp": "2025-12-03T17:47:50.369700+00:00", "meta": {"OBJECT_NAME": "SKYSAT-C9", "OBJECT_ID": "2017-068C", "EPOCH": "2025-12-03T07:26:41.093376", "MEAN_MOTION": 15.35663642, "ECCENTRICITY": 0.0010656, "INCLINATION": 97.4181, "RA_OF_ASC_NODE": 107.4928, "ARG_OF_PERICENTER": 118.4676, "MEAN_ANOMALY": 241.7642, "EPHEMERIS_TYPE": 0, "CLASSIFICATION_TYPE": "U", "NORAD_CAT_ID": 42989, "ELEMENT_SET_NO": 999, "REV_AT_EPOCH": 45263, "BSTAR": 0.00051582, "MEAN_MOTION_DOT": 0.00017859, "MEAN_MOTION_DDOT": 0}, "tle": {"line1": "1 42989U 17068C   25337.31019784  .00017859  00000+0  51582-3 0  9990", "line2": "2 42989  97.4181 107.4928 0010656 118.4676 241.7642 15.35663642452633"}}, "geometry": {"type": "Point", "coordinates": [-79.09292197332125, -43.168778444305666]}}, {"type": "Feature", "properties": {"norad_id": 42990, "name": "SKYSAT-C8", "group": "resource", "lat": -64.37443176384289, "lon": 123.48701925988632, "alt_km": 475.16063251195555, "timestamp": "2025-12-03T17:47:50.369710+00:00", "meta": {"OBJECT_NAME": "SKYSAT-C8", "OBJECT_ID": "2017-068D", "EPOCH": "2025-12-03T08:40:49.285920", "MEAN_MOTION": 15.32591193, "ECCENTRICITY": 0.0002138, "INCLINATION": 97.4276, "RA_OF_ASC_NODE": 107.3238, "ARG_OF_PERICENTER": 20.8158, "MEAN_ANOMALY": 339.317, "EPHEMERIS_TYPE": 0, "CLASSIFICATION_TYPE": "U", "NORAD_CAT_ID": 42990, "ELEMENT_SET_NO": 999, "REV_AT_EPOCH": 45227, "BSTAR": 0.0004801, "MEAN_MOTION_DOT": 0.00015045, "MEAN_MOTION_DDOT": 0}, "tle": {"line1": "1 42990U 17068D   25337.36168155  .00015045  00000+0  48010-3 0  9991", "line2": "2 42990  97.4276 107.3238 0002138  20.8158 339.3170 15.32591193452278"}}, "geometry": {"type": "Point", "coordinates": [123.48701925988632, -64.37443176384289]}}, {"type": "Feature", "properties": {"norad_id": 42991, "name": "SKYSAT-C7", "group": "resource", "lat": 10.425874455179054, "lon": -69.87099512354872, "alt_km": 470.93903849728576, "timestamp": "2025-12-03T17:47:50.369721+00:00", "meta": {"OBJECT_NAME": "SKYSAT-C7", "OBJECT_ID": "2017-068E", "EPOCH": "2025-12-03T02:57:10.325088", "MEAN_MOTION": 15.31993019, "ECCENTRICITY": 0.00078615, "INCLINATION": 97.4281, "RA_OF_ASC_NODE": 108.1332, "ARG_OF_PERICENTER": 87.0209, "MEAN_ANOMALY": 273.1932, "EPHEMERIS_TYPE": 0, "CLASSIFICATION_TYPE": "U", "NORAD_CAT_ID": 42991, "ELEMENT_SET_NO": 999, "REV_AT_EPOCH": 45230, "BSTAR": 0.00051571811, "MEAN_MOTION_DOT": 0.00015882, "MEAN_MOTION_DDOT": 0}, "tle": {"line1": "1 42991U 17068E   25337.12303617  .00015882  00000+0  51572-3 0  9996", "line2": "2 42991  97.4281 108.1332 0007861  87.0209 273.1932 15.31993019452306"}}, "geometry": {"type": "Point", "coordinates": [-69.87099512354872, 10.425874455179054]}}, {"type": "Feature", "properties": {"norad_id": 42992, "name": "SKYSAT-C6", "group": "resource", "lat": -46.55927447392683, "lon": 117.12169140586695, "alt_km": 482.30302705763734, "timestamp": "2025-12-03T17:47:50.369732+00:00", "meta": {"OBJECT_NAME": "SKYSAT-C6", "OBJECT_ID": "2017-068F", "EPOCH": "2025-12-03T08:35:31.689888", "MEAN_MOTION": 15.31177883, "ECCENTRICITY": 0.0005146, "INCLINATION": 97.4315, "RA_OF_ASC_NODE": 108.8149, "ARG_OF_PERICENTER": 109.2046, "MEAN_ANOMALY": 250.9752, "EPHEMERIS_TYPE": 0, "CLASSIFICATION_TYPE": "U", "NORAD_CAT_ID": 42992, "ELEMENT_SET_NO": 999, "REV_AT_EPOCH": 45232, "BSTAR": 0.00046777, "MEAN_MOTION_DOT": 0.00014026, "MEAN_MOTION_DDOT": 0}, "tle": {"line1": "1 42992U 17068F   25337.35800567  .00014026  00000+0  46777-3 0  9998", "line2": "2 42992  97.4315 108.8149 0005146 109.2046 250.9752 15.31177883452326"}}, "geometry": {"type": "Point", "coordinates": [117.12169140586695, -46.55927447392683]}}, {"type": "Feature", "properties": {"norad_id": 43111, "name": "CARTOSAT-2F", "group": "resource", "lat": 82.39753795097555, "lon": -66.47500616720134, "alt_km": 500.4502943539819, "timestamp": "2025-12-03T17:47:50.369742+00:00", "meta": {"OBJECT_NAME": "CARTOSAT-2F", "OBJECT_ID": "2018-004A", "EPOCH": "2025-12-03T07:54:43.006752", "MEAN_MOTION": 15.19349192, "ECCENTRICITY": 0.0001095, "INCLINATION": 97.4331, "RA_OF_ASC_NODE": 35.1191, "ARG_OF_PERICENTER": 191.5703, "MEAN_ANOMALY": 168.5506, "EPHEMERIS_TYPE": 0, "CLASSIFICATION_TYPE": "U", "NORAD_CAT_ID": 43111, "ELEMENT_SET_NO": 999, "REV_AT_EPOCH": 43759, "BSTAR": 7.282e-05, "MEAN_MOTION_DOT": 1.471e-05, "MEAN_MOTION_DDOT": 0}, "tle": {"line1": "1 43111U 18004A   25337.32966443  .00001471  00000+0  72820-4 0  9995", "line2": "2 43111  97.4331  35.1191 0001095 191.5703 168.5506 15.19349192437593"}}, "geometry": {"type": "Point", "coordinates": [-66.47500616720134, 82.39753795097555]}}, {"type": "Feature", "properties": {"norad_id": 43259, "name": "GAOFEN-1 02", "group": "resource", "lat": 19.015261485363958, "lon": -141.66624971491493, "alt_km": 640.891564333192, "timestamp": "2025-12-03T17:47:50.369753+00:00", "meta": {"OBJECT_NAME": "GAOFEN-1 02", "OBJECT_ID": "2018-031A", "EPOCH": "2025-12-03T12:11:32.209152", "MEAN_MOTION": 14.76448536, "ECCENTRICITY": 0.0001298, "INCLINATION": 98.082, "RA_OF_ASC_NODE": 35.2932, "ARG_OF_PERICENTER": 257.4654, "MEAN_ANOMALY": 102.641, "EPHEMERIS_TYPE": 0, "CLASSIFICATION_TYPE": "U", "NORAD_CAT_ID": 43259, "ELEMENT_SET_NO": 999, "REV_AT_EPOCH": 41382, "BSTAR": 0.00021743, "MEAN_MOTION_DOT": 1.461e-05, "MEAN_MOTION_DDOT": 0}, "tle": {"line1": "1 43259U 18031A   25337.50801168  .00001461  00000+0  21743-3 0  9996", "line2": "2 43259  98.0820  35.2932 0001298 257.4654 102.6410 14.76448536413829"}}, "geometry": {"type": "Point", "coordinates": [-141.66624971491493, 19.015261485363958]}}, {"type": "Feature", "properties": {"norad_id": 43260, "name": "GAOFEN-1 03", "group": "resource", "lat": -79.2845387591059, "lon": 84.06771007592178, "alt_km": 647.7295309754427, "timestamp": "2025-12-03T17:47:50.369763+00:00", "meta": {"OBJECT_NAME": "GAOFEN-1 03", "OBJECT_ID": "2018-031B", "EPOCH": "2025-12-03T11:39:58.378176", "MEAN_MOTION": 14.76405005, "ECCENTRICITY": 0.0002628, "INCLINATION": 98.0812, "RA_OF_ASC_NODE": 35.1494, "ARG_OF_PERICENTER": 358.418, "MEAN_ANOMALY": 1.7021, "EPHEMERIS_TYPE": 0, "CLASSIFICATION_TYPE": "U", "NORAD_CAT_ID": 43260, "ELEMENT_SET_NO": 999, "REV_AT_EPOCH": 41381, "BSTAR": 0.00021899, "MEAN_MOTION_DOT": 1.47e-05, "MEAN_MOTION_DDOT": 0}, "tle": {"line1": "1 43260U 18031B   25337.48609234  .00001470  00000+0  21899-3 0  9997", "line2": "2 43260  98.0812  35.1494 0002628 358.4180   1.7021 14.76405005413818"}}, "geometry": {"type": "Point", "coordinates": [84.06771007592178, -79.2845387591059]}}]}